NORAD_CAT_ID,OBJECT_NAME,OBJECT_TYPE,EPOCH,MEAN_MOTION,ECCENTRICITY,INCLINATION,RA_OF_ASC_NODE,ARG_OF_PERICENTER,MEAN_ANOMALY,BSTAR,MEAN_MOTION_DOT,MEAN_MOTION_DDOT,TLE_LINE0,TLE_LINE1,TLE_LINE2,SEMIMAJOR_AXIS,PERIOD,APOGEE,PERIGEE,DECAYED
54004.0,STARLINK-5129,PAYLOAD,2023-10-26 18:29:44,15.08847859,0.0001385,53.2154,136.5754,82.7755,277.3395,0.00012541,1.709e-05,0.0,0 STARLINK-5129,1 54004U 22125AS  23299.77065096  .00001709  00000-0  12541-3 0  9993,2 54004  53.2154 136.5754 0001385  82.7755 277.3395 15.08847859 58944,6917.856,95.437,540.679,538.763,0.0
54004.0,STARLINK-5129,PAYLOAD,2023-10-26 20:05:07,15.08851054,0.0001388,53.2154,136.2779,85.734,274.3811,0.00016346,2.315e-05,0.0,0 STARLINK-5129,1 54004U 22125AS  23299.83688907  .00002315  00000-0  16346-3 0  9993,2 54004  53.2154 136.2779 0001388  85.7340 274.3811 15.08851054 58902,6917.847,95.437,540.672,538.751,0.0
54004.0,STARLINK-5129,PAYLOAD,2023-10-27 13:34:21,15.08842552,0.0001401,53.2152,133.0062,80.099,280.016,0.000111,1.479e-05,0.0,0 STARLINK-5129,1 54004U 22125AS  23300.56553151  .00001479  00000-0  11100-3 0  9991,2 54004  53.2152 133.0062 0001401  80.0990 280.0160 15.08842552 59012,6917.873,95.437,540.707,538.768,0.0
54004.0,STARLINK-5129,PAYLOAD,2023-10-27 19:55:54,15.08847443,0.0001397,53.2152,131.8166,80.5286,279.5864,0.00017907,2.564e-05,0.0,0 STARLINK-5129,1 54004U 22125AS  23300.83048872  .00002564  00000-0  17907-3 0  9997,2 54004  53.2152 131.8166 0001397  80.5286 279.5864 15.08847443 59108,6917.858,95.437,540.689,538.756,0.0
54004.0,STARLINK-5129,PAYLOAD,2023-10-27 23:06:40,15.08847871,0.0001404,53.2152,131.2219,80.2245,279.8906,0.00017035,2.425e-05,0.0,0 STARLINK-5129,1 54004U 22125AS  23300.96296791  .00002425  00000-0  17035-3 0  9994,2 54004  53.2152 131.2219 0001404  80.2245 279.8906 15.08847871 59073,6917.856,95.437,540.693,538.75,0.0
54004.0,STARLINK-5129,PAYLOAD,2023-10-28 16:35:55,15.08833866,0.0001441,53.2152,127.9508,81.479,278.6365,-7.2116e-05,-1.435e-05,0.0,0 STARLINK-5129,1 54004U 22125AS  23301.69161610 -.00001435  00000-0 -72116-4 0  9990,2 54004  53.2152 127.9508 0001441  81.4790 278.6365 15.08833866 59238,6917.899,95.438,540.761,538.767,0.0
54004.0,STARLINK-5129,PAYLOAD,2023-10-28 21:22:04,15.08837763,0.0001471,53.2152,127.0587,81.4951,278.6208,-6.0957e-06,-3.85e-06,0.0,0 STARLINK-5129,1 54004U 22125AS  23301.89033464 -.00000385  00000-0 -60957-5 0  9991,2 54004  53.2152 127.0587 0001471  81.4951 278.6208 15.08837763 59212,6917.887,95.438,540.77,538.735,0.0
54004.0,STARLINK-5129,PAYLOAD,2023-10-29 05:19:00,15.08842591,0.0001373,53.2153,125.5716,87.9325,272.1825,5.2781e-05,5.52e-06,0.0,0 STARLINK-5129,1 54004U 22125AS  23302.22153237  .00000552  00000-0  52781-4 0  9999,2 54004  53.2153 125.5716 0001373  87.9325 272.1825 15.08842591 59317,6917.872,95.437,540.687,538.788,0.0
54004.0,STARLINK-5129,PAYLOAD,2023-10-29 21:12:51,15.08849161,0.0001457,53.2155,122.597,84.4885,275.6273,0.00018465,2.653e-05,0.0,0 STARLINK-5129,1 54004U 22125AS  23302.88392994  .00002653  00000-0  18465-3 0  9990,2 54004  53.2155 122.5970 0001457  84.4885 275.6273 15.08849161 59364,6917.852,95.437,540.725,538.709,0.0
54004.0,STARLINK-5129,PAYLOAD,2023-10-30 11:31:20,15.08839921,0.0001446,53.216,119.9224,108.8031,251.3118,0.00014952,2.092e-05,0.0,0 STARLINK-5129,1 54004U 22125AS  23303.48009399  .00002092  00000-0  14952-3 0  9995,2 54004  53.2160 119.9224 0001446 108.8031 251.3118 15.08839921 59502,6917.881,95.438,540.746,538.745,0.0
54004.0,STARLINK-5129,PAYLOAD,2023-10-31 05:00:34,15.08839582,0.0001334,53.2153,116.6506,87.0197,273.0947,9.6286e-05,1.245e-05,0.0,0 STARLINK-5129,1 54004U 22125AS  23304.20873651  .00001245  00000-0  96286-4 0  9996,2 54004  53.2153 116.6506 0001334  87.0197 273.0947 15.08839582 59568,6917.882,95.438,540.67,538.824,0.0
54004.0,STARLINK-5129,PAYLOAD,2023-10-31 17:43:39,15.0884475,0.000127,53.2154,114.2723,85.517,274.5968,0.00019787,2.863e-05,0.0,0 STARLINK-5129,1 54004U 22125AS  23304.73865513  .00002863  00000-0  19787-3 0  9999,2 54004  53.2154 114.2723 0001270  85.5170 274.5968 15.08844750 59693,6917.866,95.437,540.609,538.852,0.0
54004.0,STARLINK-5129,PAYLOAD,2023-11-01 14:23:40,15.08839364,0.0001357,53.2156,110.407,82.249,277.8657,0.00011895,1.606e-05,0.0,0 STARLINK-5129,1 54004U 22125AS  23305.59977767  .00001606  00000-0  11895-3 0  9995,2 54004  53.2156 110.4070 0001357  82.2490 277.8657 15.08839364 59778,6917.882,95.438,540.686,538.809,0.0
54004.0,STARLINK-5129,PAYLOAD,2023-11-01 17:34:26,15.08842652,0.0001323,53.2154,109.8113,87.5538,272.5605,0.00015984,2.257e-05,0.0,0 STARLINK-5129,1 54004U 22125AS  23305.73225600  .00002257  00000-0  15984-3 0  9999,2 54004  53.2154 109.8113 0001323  87.5538 272.5605 15.08842652 59847,6917.872,95.437,540.653,538.822,0.0
54004.0,STARLINK-5129,PAYLOAD,2023-11-02 14:14:27,15.08843334,0.0001558,53.2158,105.9444,91.4236,268.6935,-1.9635e-05,-6.01e-06,0.0,0 STARLINK-5129,1 54004U 22125AS  23306.59337586 -.00000601  00000-0 -19635-4 0  9992,2 54004  53.2158 105.9444 0001558  91.4236 268.6935 15.08843334 59923,6917.87,95.437,540.813,538.657,0.0
54004.0,STARLINK-5129,PAYLOAD,2023-11-02 20:36:00,15.08842549,0.0001373,53.2157,104.7554,92.1472,267.9678,7.148e-05,8.5e-06,0.0,0 STARLINK-5129,1 54004U 22125AS  23306.85833590  .00000850  00000-0  71480-4 0  9997,2 54004  53.2157 104.7554 0001373  92.1472 267.9678 15.08842549 59963,6917.873,95.437,540.687,538.788,0.0
54004.0,STARLINK-5129,PAYLOAD,2023-11-03 01:22:09,15.08844237,0.0001376,53.2159,103.8631,92.394,267.721,0.00010324,1.356e-05,0.0,0 STARLINK-5129,1 54004U 22125AS  23307.05705461  .00001356  00000-0  10324-3 0  9996,2 54004  53.2159 103.8631 0001376  92.3940 267.7210 15.08844237 60043,6917.867,95.437,540.684,538.781,0.0
54004.0,STARLINK-5129,PAYLOAD,2023-11-03 10:54:28,15.08833517,0.000135,53.2164,102.08,92.7074,267.4073,3.2227e-05,2.25e-06,0.0,0 STARLINK-5129,1 54004U 22125AS  23307.45450224  .00000225  00000-0  32227-4 0  9995,2 54004  53.2164 102.0800 0001350  92.7074 267.4073 15.08833517 60102,6917.9,95.438,540.699,538.831,0.0
54004.0,STARLINK-5129,PAYLOAD,2023-11-03 14:05:14,15.08838127,0.0001391,53.217,101.4859,89.8364,270.2788,5.6284e-05,6.08e-06,0.0,0 STARLINK-5129,1 54004U 22125AS  23307.58697914  .00000608  00000-0  56284-4 0  9992,2 54004  53.2170 101.4859 0001391  89.8364 270.2788 15.08838127 60073,6917.886,95.438,540.713,538.789,0.0
54004.0,STARLINK-5129,PAYLOAD,2023-11-03 20:26:47,15.08845559,0.0001307,53.2169,100.296,90.2373,269.8769,7.935e-05,9.75e-06,0.0,0 STARLINK-5129,1 54004U 22125AS  23307.85193321  .00000975  00000-0  79350-4 0  9991,2 54004  53.2169 100.2960 0001307  90.2373 269.8769 15.08845559 60164,6917.863,95.437,540.633,538.824,0.0
54004.0,STARLINK-5129,PAYLOAD,2023-11-04 10:45:16,15.08826901,0.0001358,53.2171,97.6202,84.5392,275.5755,0.00012069,1.633e-05,0.0,0 STARLINK-5129,1 54004U 22125AS  23308.44810360  .00001633  00000-0  12069-3 0  9991,2 54004  53.2171  97.6202 0001358  84.5392 275.5755 15.08826901 60257,6917.92,95.438,540.725,538.846,0.0
54004.0,STARLINK-5129,PAYLOAD,2023-11-04 13:56:02,15.08839063,0.0001404,53.217,97.0252,87.5229,272.5924,3.7238e-05,3.05e-06,0.0,0 STARLINK-5129,1 54004U 22125AS  23308.58057993  .00000305  00000-0  37238-4 0  9992,2 54004  53.2170  97.0252 0001404  87.5229 272.5924 15.08839063 60224,6917.883,95.438,540.72,538.777,0.0
54004.0,STARLINK-5129,PAYLOAD,2023-11-04 17:06:48,15.08843242,0.0001387,53.217,96.4306,85.3932,274.7219,7.4725e-05,9.02e-06,0.0,0 STARLINK-5129,1 54004U 22125AS  23308.71305655  .00000902  00000-0  74725-4 0  9993,2 54004  53.2170  96.4306 0001387  85.3932 274.7219 15.08843242 60296,6917.87,95.437,540.695,538.776,0.0
54004.0,STARLINK-5129,PAYLOAD,2023-11-05 13:46:48,15.08845536,0.0001325,53.2171,92.5653,85.8118,274.3026,0.00011508,1.544e-05,0.0,0 STARLINK-5129,1 54004U 22125AS  23309.57417510  .00001544  00000-0  11508-3 0  9994,2 54004  53.2171  92.5653 0001325  85.8118 274.3026 15.08845536 60371,6917.863,95.437,540.645,538.812,0.0
54004.0,STARLINK-5129,PAYLOAD,2023-11-05 16:57:34,15.08849112,0.000135,53.2164,91.9706,82.2445,277.87,0.00016978,2.416e-05,0.0,0 STARLINK-5129,1 54004U 22125AS  23309.70665264  .00002416  00000-0  16978-3 0  9995,2 54004  53.2164  91.9706 0001350  82.2445 277.8700 15.08849112 60390,6917.853,95.437,540.651,538.784,0.0
54004.0,STARLINK-5129,PAYLOAD,2023-11-06 02:29:53,15.0884694,0.0001286,53.2162,90.1873,99.0685,261.0453,0.00069568,0.00010803,0.0,0 STARLINK-5129,1 54004U 22125AS  23310.10409443  .00010803  00000-0  69568-3 0  9998,2 54004  53.2162  90.1873 0001286  99.0685 261.0453 15.08846940 60503,6917.859,95.437,540.614,538.835,0.0
54004.0,STARLINK-5129,PAYLOAD,2023-11-06 13:37:35,15.08850792,0.000143,53.2147,88.1056,89.5333,270.5823,0.00011226,1.5e-05,0.0,0 STARLINK-5129,1 54004U 22125AS  23310.56776675  .00001500  00000-0  11226-3 0  9994,2 54004  53.2147  88.1056 0001430  89.5333 270.5823 15.08850792 60529,6917.847,95.437,540.702,538.723,0.0
54004.0,STARLINK-5129,PAYLOAD,2023-11-06 15:12:57,15.08855225,0.0001312,53.216,87.8073,76.5972,283.5167,0.00019757,2.859e-05,0.0,0 STARLINK-5129,1 54004U 22125AS  23310.63400450  .00002859  00000-0  19757-3 0  9992,2 54004  53.2160  87.8073 0001312  76.5972 283.5167 15.08855225 60535,6917.834,95.437,540.606,538.791,0.0
54004.0,STARLINK-5129,PAYLOAD,2023-11-07 02:20:42,15.08813732,0.0001307,53.2159,85.7262,86.7831,273.331,-0.00035637,-5.951e-05,0.0,0 STARLINK-5129,1 54004U 22125AS  23311.09770968 -.00005951  00000-0 -35637-3 0  9990,2 54004  53.2159  85.7262 0001307  86.7831 273.3310 15.08813732 60658,6917.961,95.439,540.73,538.922,0.0
54004.0,STARLINK-5129,PAYLOAD,2023-11-07 15:03:47,15.08820064,0.0001248,53.2158,83.3482,85.515,274.5985,-0.00017924,-3.138e-05,0.0,0 STARLINK-5129,1 54004U 22125AS  23311.62763207 -.00003138  00000-0 -17924-3 0  9991,2 54004  53.2158  83.3482 0001248  85.5150 274.5985 15.08820064 60680,6917.941,95.439,540.67,538.943,0.0
